LEMUR-2-MYRA            
1 66787U 25276EC  26199.13711973  .00003137  00000+0  25202-3 0  9992
2 66787  97.5220 269.0099 0018644  45.3300 314.9440 15.00608305 34857
LEMUR-2 FIKRETDENGIZ    
1 67363U 26004A   26199.25996697  .00001926  00000+0  21285-3 0  9995
2 67363  97.8030 197.3463 0009957  47.3369 312.8686 14.88528561 27909
TWILIGHT-1 OBJECT B     
1 67364U 26004B   26198.96233214  .00000859  00000+0  99977-4 0  9990
2 67364  97.8076 197.0524 0009540  37.8134 322.3751 14.87798598 27869
LEMUR-2-MARIO-SOUSA     
1 67365U 26004C   26199.23939355  .00001853  00000+0  20393-3 0  9991
2 67365  97.8003 197.3211 0009624  48.6883 311.5161 14.88741249 27913
LEMUR-2-SONNENBLUME     
1 67367U 26004E   26199.31003782  .00001282  00000+0  14392-3 0  9996
2 67367  97.8002 197.3618 0009226  49.6235 310.5786 14.88462003 27926
LEMUR-2-WOBLER          
1 67368U 26004F   26199.23159703  .00001690  00000+0  18669-3 0  9997
2 67368  97.8054 197.4389 0009288  41.2949 318.8968 14.88710075 27915
LEMUR-2-GRAM-E-SUE      
1 67370U 26004H   26199.29117408  .00001178  00000+0  13226-3 0  9997
2 67370  97.7987 197.3598 0008404  52.6854 307.5128 14.88597062 27926
LEMUR-2-KATIE           
1 67387U 26004AA  26199.24468049  .00001947  00000+0  20628-3 0  9998
2 67387  97.8047 197.8759 0003222  26.4666 333.6716 14.90265631 27930
LEMUR-2-HCS-BAZUS       
1 67388U 26004AB  26199.31015936  .00001686  00000+0  17936-3 0  9998
2 67388  97.8039 197.9184 0002716  27.5254 332.6107 14.90274461 27942
